COMMENT,ORIGINATOR,NORAD_CAT_ID,OBJECT_NAME,OBJECT_TYPE,CLASSIFICATION_TYPE,INTLDES,EPOCH,EPOCH_MICROSECONDS,MEAN_MOTION,ECCENTRICITY,INCLINATION,RA_OF_ASC_NODE,ARG_OF_PERICENTER,MEAN_ANOMALY,EPHEMERIS_TYPE,ELEMENT_SET_NO,REV_AT_EPOCH,BSTAR,MEAN_MOTION_DOT,MEAN_MOTION_DDOT,FILE,TLE_LINE0,TLE_LINE1,TLE_LINE2,OBJECT_ID,OBJECT_NUMBER,SEMIMAJOR_AXIS,PERIOD,APOGEE,PERIGEE,DECAYED
"GENERATED VIA SPACETRACK.ORG API","18 SPCS","47950","OBJECT U","TBA","U","21022U","2021-09-23 02:01:33","196800","15.058741","0.0021452","97.5451","166.1856","344.2323","122.7821","0","999","2774","0.00012301","0.00001733","0","3124309","0 OBJECT U","1 47950U 21022U   21266.08441200  .00001733  00000-0  12301-3 0  9992","2 47950  97.5451 166.1856 0021452 344.2323 122.7821 15.05874100 27740","2021-022U","47950","6926.961","95.626","563.686","533.966","0"
"GENERATED VIA SPACETRACK.ORG API","18 SPCS","47950","OBJECT U","TBA","U","21022U","2021-09-23 11:29:56","484672","15.05875465","0.0021484","97.5452","166.5726","343.0772","102.394","0","999","2780","0.00012296","0.00001732","0","3124764","0 OBJECT U","1 47950U 21022U   21266.47912598  .00001732  00000-0  12296-3 0  9990","2 47950  97.5452 166.5726 0021484 343.0772 102.3940 15.05875465 27809","2021-022U","47950","6926.957","95.625","563.704","533.940","0"
"GENERATED VIA SPACETRACK.ORG API","18 SPCS","47950","OBJECT U","TBA","U","21022U","2021-09-23 11:29:56","484672","15.05875465","0.0021484","97.5452","166.5726","343.0772","102.394","0","999","2780","0.00012296","0.00001732","0","3124856","0 OBJECT U","1 47950U 21022U   21266.47912598  .00001732  00000-0  12296-3 0  9990","2 47950  97.5452 166.5726 0021484 343.0772 102.3940 15.05875465 27809","2021-022U","47950","6926.957","95.625","563.704","533.940","0"
"GENERATED VIA SPACETRACK.ORG API","18 SPCS","47950","OBJECT U","TBA","U","21022U","2021-09-23 19:29:02","869728","15.05876923","0.0021345","97.5451","166.8979","341.8621","106.165","0","999","2785","0.00012509","0.00001764","0","3125187","0 OBJECT U","1 47950U 21022U   21266.81183877  .00001764  00000-0  12509-3 0  9990","2 47950  97.5451 166.8979 0021345 341.8621 106.1650 15.05876923 27851","2021-022U","47950","6926.952","95.625","563.603","534.032","0"
"GENERATED VIA SPACETRACK.ORG API","18 SPCS","47950","OBJECT U","TBA","U","21022U","2021-09-23 23:55:54","590304","15.05877544","0.0021347","97.5453","167.0794","341.2883","30.7604","0","999","2788","0.00012451","0.00001755","0","3125337","0 OBJECT U","1 47950U 21022U   21266.99715961  .00001755  00000-0  12451-3 0  9990","2 47950  97.5453 167.0794 0021347 341.2883  30.7604 15.05877544 27881","2021-022U","47950","6926.950","95.625","563.602","534.028","0"
"GENERATED VIA SPACETRACK.ORG API","18 SPCS","47950","OBJECT U","TBA","U","21022U","2021-09-24 01:56:48","356736","15.05877893","0.0021351","97.5453","167.1615","341.016","125.8836","0","999","2789","0.00012485","0.0000176","0","3125796","0 OBJECT U","1 47950U 21022U   21267.08111524  .00001760  00000-0  12485-3 0  9999","2 47950  97.5453 167.1615 0021351 341.0160 125.8836 15.05877893 27896","2021-022U","47950","6926.949","95.625","563.604","534.024","0"
"GENERATED VIA SPACETRACK.ORG API","18 SPCS","47950","OBJECT U","TBA","U","21022U","2021-09-24 14:36:37","190592","15.05879922","0.0021222","97.5455","167.678","339.2572","106.3143","0","999","2797","0.00012603","0.00001777","0","3126002","0 OBJECT U","1 47950U 21022U   21267.60876378  .00001777  00000-0  12603-3 0  9992","2 47950  97.5455 167.6780 0021222 339.2572 106.3143 15.05879922 27978","2021-022U","47950","6926.943","95.625","563.508","534.108","0"
"GENERATED VIA SPACETRACK.ORG API","18 SPCS","47950","OBJECT U","TBA","U","21022U","2021-09-24 21:00:33","693408","15.05880842","0.0021233","97.5456","167.9389","338.3954","111.6927","0","999","2801","0.00012524","0.00001766","0","3126749","0 OBJECT U","1 47950U 21022U   21267.87538997  .00001766  00000-0  12524-3 0  9993","2 47950  97.5456 167.9389 0021233 338.3954 111.6927 15.05880842 28011","2021-022U","47950","6926.940","95.625","563.513","534.097","0"
"GENERATED VIA SPACETRACK.ORG API","18 SPCS","47950","OBJECT U","TBA","U","21022U","2021-09-24 21:00:33","693408","15.05880842","0.0021233","97.5456","167.9389","338.3954","111.6927","0","999","2801","0.00012524","0.00001766","0","3126800","0 OBJECT U","1 47950U 21022U   21267.87538997  .00001766  00000-0  12524-3 0  9993","2 47950  97.5456 167.9389 0021233 338.3954 111.6927 15.05880842 28011","2021-022U","47950","6926.940","95.625","563.513","534.097","0"
"GENERATED VIA SPACETRACK.ORG API","18 SPCS","47950","OBJECT U","TBA","U","21022U","2021-09-25 05:07:01","711200","15.05882109","0.0021219","97.5457","168.2696","337.2986","143.0424","0","999","2806","0.00012521","0.00001765","0","3127130","0 OBJECT U","1 47950U 21022U   21268.21321425  .00001765  00000-0  12521-3 0  9994","2 47950  97.5457 168.2696 0021219 337.2986 143.0424 15.05882109 28068","2021-022U","47950","6926.936","95.625","563.500","534.103","0"
"GENERATED VIA SPACETRACK.ORG API","18 SPCS","47950","OBJECT U","TBA","U","21022U","2021-09-25 05:07:01","711200","15.05882109","0.0021219","97.5457","168.2696","337.2986","143.0424","0","999","2806","0.00012521","0.00001765","0","3127665","0 OBJECT U","1 47950U 21022U   21268.21321425  .00001765  00000-0  12521-3 0  9994","2 47950  97.5457 168.2696 0021219 337.2986 143.0424 15.05882109 28068","2021-022U","47950","6926.936","95.625","563.500","534.103","0"
"GENERATED VIA SPACETRACK.ORG API","18 SPCS","47950","OBJECT U","TBA","U","21022U","2021-09-25 13:05:53","278656","15.05883292","0.0021092","97.5457","168.5947","336.0684","145.9051","0","999","2811","0.00012519","0.00001765","0","3127637","0 OBJECT U","1 47950U 21022U   21268.54575554  .00001765  00000-0  12519-3 0  9991","2 47950  97.5457 168.5947 0021092 336.0684 145.9051 15.05883292 28118","2021-022U","47950","6926.933","95.625","563.408","534.187","0"
"GENERATED VIA SPACETRACK.ORG API","18 SPCS","47950","OBJECT U","TBA","U","21022U","2021-09-25 19:19:09","530688","15.05884285","0.00211","97.5452","168.8486","335.254","111.0924","0","999","2815","0.00012534","0.00001767","0","3128016","0 OBJECT U","1 47950U 21022U   21268.80497142  .00001767  00000-0  12534-3 0  9995","2 47950  97.5452 168.8486 0021100 335.2540 111.0924 15.05884285 28156","2021-022U","47950","6926.930","95.625","563.410","534.179","0"
"GENERATED VIA SPACETRACK.ORG API","18 SPCS","47950","OBJECT U","TBA","U","21022U","2021-09-25 19:19:09","530688","15.05884285","0.00211","97.5452","168.8486","335.254","111.0924","0","999","2815","0.00012534","0.00001767","0","3128274","0 OBJECT U","1 47950U 21022U   21268.80497142  .00001767  00000-0  12534-3 0  9995","2 47950  97.5452 168.8486 0021100 335.2540 111.0924 15.05884285 28156","2021-022U","47950","6926.930","95.625","563.410","534.179","0"
"GENERATED VIA SPACETRACK.ORG API","18 SPCS","47950","OBJECT U","TBA","U","21022U","2021-09-26 05:02:49","260768","15.0588593","0.0021089","97.5453","169.2452","333.8394","148.4467","0","999","2821","0.00012653","0.00001785","0","3128837","0 OBJECT U","1 47950U 21022U   21269.21029237  .00001785  00000-0  12653-3 0  9999","2 47950  97.5453 169.2452 0021089 333.8394 148.4467 15.05885930 28213","2021-022U","47950","6926.925","95.625","563.398","534.181","0"
"GENERATED VIA SPACETRACK.ORG API","18 SPCS","47950","OBJECT U","TBA","U","21022U","2021-09-26 13:01:13","255392","15.05887263","0.0020993","97.5455","169.5706","332.6894","149.5053","0","999","2826","0.0001277","0.00001802","0","3129223","0 OBJECT U","1 47950U 21022U   21269.54251453  .00001802  00000-0  12770-3 0  9992","2 47950  97.5455 169.5706 0020993 332.6894 149.5053 15.05887263 28264","2021-022U","47950","6926.920","95.625","563.327","534.244","0"
"GENERATED VIA SPACETRACK.ORG API","18 SPCS","47950","OBJECT U","TBA","U","21022U","2021-09-26 13:01:13","255392","15.05887263","0.0020993","97.5455","169.5706","332.6894","149.5053","0","999","2826","0.0001277","0.00001802","0","3129258","0 OBJECT U","1 47950U 21022U   21269.54251453  .00001802  00000-0  12770-3 0  9992","2 47950  97.5455 169.5706 0020993 332.6894 149.5053 15.05887263 28264","2021-022U","47950","6926.920","95.625","563.327","534.244","0"
"GENERATED VIA SPACETRACK.ORG API","18 SPCS","47950","OBJECT U","TBA","U","21022U","2021-09-26 19:14:20","527872","15.05888337","0.0020982","97.5454","169.8241","331.8734","114.135","0","999","2830","0.00012879","0.00001818","0","3129542","0 OBJECT U","1 47950U 21022U   21269.80162648  .00001818  00000-0  12879-3 0  9995","2 47950  97.5454 169.8241 0020982 331.8734 114.1350 15.05888337 28308","2021-022U","47950","6926.917","95.625","563.316","534.248","0"
"GENERATED VIA SPACETRACK.ORG API","18 SPCS","47950","OBJECT U","TBA","U","21022U","2021-09-26 19:14:20","527872","15.05888337","0.0020982","97.5454","169.8241","331.8734","114.135","0","999","2830","0.00012879","0.00001818","0","3129566","0 OBJECT U","1 47950U 21022U   21269.80162648  .00001818  00000-0  12879-3 0  9995","2 47950  97.5454 169.8241 0020982 331.8734 114.1350 15.05888337 28308","2021-022U","47950","6926.917","95.625","563.316","534.248","0"
"GENERATED VIA SPACETRACK.ORG API","18 SPCS","47950","OBJECT U","TBA","U","21022U","2021-09-27 04:58:08","783040","15.05889955","0.0020983","97.5454","170.221","330.5574","151.9308","0","999","2836","0.00012939","0.00001827","0","3129934","0 OBJECT U","1 47950U 21022U   21270.20704610  .00001827  00000-0  12939-3 0  9999","2 47950  97.5454 170.2210 0020983 330.5574 151.9308 15.05889955 28364","2021-022U","47950","6926.912","95.625","563.312","534.242","0"
